[{"OBJECT_NAME":"STARLINK-3559","OBJECT_ID":"2022-022J","EPOCH":"2026-03-09T01:35:09.731040","MEAN_MOTION":15.08841221,"ECCENTRICITY":0.0001356,"INCLINATION":53.2179,"RA_OF_ASC_NODE":11.9159,"ARG_OF_PERICENTER":89.8062,"MEAN_ANOMALY":270.3085,"EPHEMERIS_TYPE":0,"CLASSIFICATION_TYPE":"U","NORAD_CAT_ID":51860,"ELEMENT_SET_NO":999,"REV_AT_EPOCH":22302,"BSTAR":2.8006584e-5,"MEAN_MOTION_DOT":1.58e-6,"MEAN_MOTION_DDOT":0},{"OBJECT_NAME":"RAAF M1","OBJECT_ID":"2018-099X","EPOCH":"2026-03-09T15:51:10.230048","MEAN_MOTION":15.07065376,"ECCENTRICITY":0.00134971,"INCLINATION":97.4534,"RA_OF_ASC_NODE":114.8325,"ARG_OF_PERICENTER":21.6261,"MEAN_ANOMALY":338.5534,"EPHEMERIS_TYPE":0,"CLASSIFICATION_TYPE":"U","NORAD_CAT_ID":43779,"ELEMENT_SET_NO":999,"REV_AT_EPOCH":39714,"BSTAR":0.00026511092,"MEAN_MOTION_DOT":3.923e-5,"MEAN_MOTION_DDOT":0}]
